STARLINK-35511          
1 66344U 25253AB  25317.75003472 -.01786919  92571-3 -39055-2 0  9990
2 66344  42.9976 157.0281 0002230 267.4672  13.5298 15.97407042  2264
STARLINK-35440          
1 66345U 25253AC  25317.75003472 -.01713693  85484-3 -37827-2 0  9990
2 66345  42.9970 157.0350 0002060 266.9276  10.5294 15.97219555  2264
STARLINK-35482          
1 66346U 25253AD  25317.75003472 -.01743307  88324-3 -38305-2 0  9994
2 66346  42.9971 157.0317 0002069 266.3209  12.7523 15.97306217  2360
STARLINK-35438          
1 66347U 25253AE  25317.75003472 -.01795931  93498-3 -39130-2 0  9990
2 66347  42.9971 157.0237 0002239 268.1409  14.0812 15.97464164  2264
SHIYAN-32 A             
1 66376U 25255A   25317.97720951  .00038950  00000+0  92133-3 0  9990
2 66376  52.9975 314.6399 0013136 309.8378  50.1469 15.41367939   917
SHIYAN-32 B             
1 66377U 25255B   25317.97616533  .00074615  00000+0  17197-2 0  9995
2 66377  52.9975 314.6342 0014705 308.2201  51.7478 15.41836302   773
SHIYAN-32 C             
1 66378U 25255C   25317.97548240  .00095501  00000+0  21704-2 0  9991
2 66378  52.9986 314.6294 0014322 312.8783  47.1018 15.42144939   771
CZ-11H R/B              
1 66379U 25255D   25317.97598208  .00036296  00000+0  84856-3 0  9995
2 66379  52.9980 314.6324 0015057 311.2365  48.7341 15.41725571   799
CHUTIAN-2 A             
1 66409U 25256A   25317.95175712  .00000184  00000+0  57914-4 0  9992
2 66409  98.2793  23.2129 0012769 271.7872  88.1860 14.50839867   702
CHUTIAN-2 B             
1 66410U 25256B   25317.95133933  .00000770  00000+0  20579-3 0  9990
2 66410  98.2828  23.2142 0012672 274.5144  85.4603 14.50969761   706
ZK-1A R/B               
1 66411U 25256C   25317.92518203  .00006734  00000+0  29596-3 0  9999
2 66411  98.3259  23.6153 0233843 340.8820  18.3732 15.01024253   720
HULIANWANG DIGUI 13A    
1 66412U 25258A   25317.73056192  .00000074  00000+0  97522-4 0  9991
2 66412  50.0047  24.1929 0013881 257.7856 102.1503 14.25865551   526
