CCSDS_OMM_VERS = 2.0
CREATION_DATE  = 
ORIGINATOR     = 

OBJECT_NAME    = STARLINK-35511
OBJECT_ID      = 2025-253AB
CENTER_NAME    = EARTH
REF_FRAME      = TEME
TIME_SYSTEM    = UTC
MEAN_ELEMENT_THEORY = SGP/SGP4

EPOCH          = 2025-11-13T18:00:02.999808
MEAN_MOTION    = 15.97407042
ECCENTRICITY   = .00022306
INCLINATION    = 42.9976
RA_OF_ASC_NODE = 157.0281
ARG_OF_PERICENTER = 267.4672
MEAN_ANOMALY   = 13.5298

EPHEMERIS_TYPE = 0
CLASSIFICATION_TYPE = U
NORAD_CAT_ID   = 66344
ELEMENT_SET_NO = 999
REV_AT_EPOCH   = 226
BSTAR          = -.39055146E-2
MEAN_MOTION_DOT = -.1786919E-1
MEAN_MOTION_DDOT = .92571141E-3

CCSDS_OMM_VERS = 2.0
CREATION_DATE  = 
ORIGINATOR     = 

OBJECT_NAME    = STARLINK-35440
OBJECT_ID      = 2025-253AC
CENTER_NAME    = EARTH
REF_FRAME      = TEME
TIME_SYSTEM    = UTC
MEAN_ELEMENT_THEORY = SGP/SGP4

EPOCH          = 2025-11-13T18:00:02.999808
MEAN_MOTION    = 15.97219555
ECCENTRICITY   = .00020602
INCLINATION    = 42.9970
RA_OF_ASC_NODE = 157.0350
ARG_OF_PERICENTER = 266.9276
MEAN_ANOMALY   = 10.5294

EPHEMERIS_TYPE = 0
CLASSIFICATION_TYPE = U
NORAD_CAT_ID   = 66345
ELEMENT_SET_NO = 999
REV_AT_EPOCH   = 226
BSTAR          = -.37826793E-2
MEAN_MOTION_DOT = -.1713693E-1
MEAN_MOTION_DDOT = .85483594E-3

CCSDS_OMM_VERS = 2.0
CREATION_DATE  = 
ORIGINATOR     = 

OBJECT_NAME    = STARLINK-35482
OBJECT_ID      = 2025-253AD
CENTER_NAME    = EARTH
REF_FRAME      = TEME
TIME_SYSTEM    = UTC
MEAN_ELEMENT_THEORY = SGP/SGP4

EPOCH          = 2025-11-13T18:00:02.999808
MEAN_MOTION    = 15.97306217
ECCENTRICITY   = .00020699
INCLINATION    = 42.9971
RA_OF_ASC_NODE = 157.0317
ARG_OF_PERICENTER = 266.3209
MEAN_ANOMALY   = 12.7523

EPHEMERIS_TYPE = 0
CLASSIFICATION_TYPE = U
NORAD_CAT_ID   = 66346
ELEMENT_SET_NO = 999
REV_AT_EPOCH   = 236
BSTAR          = -.38304656E-2
MEAN_MOTION_DOT = -.1743307E-1
MEAN_MOTION_DDOT = .88323568E-3

CCSDS_OMM_VERS = 2.0
CREATION_DATE  = 
ORIGINATOR     = 

OBJECT_NAME    = STARLINK-35438
OBJECT_ID      = 2025-253AE
CENTER_NAME    = EARTH
REF_FRAME      = TEME
TIME_SYSTEM    = UTC
MEAN_ELEMENT_THEORY = SGP/SGP4

EPOCH          = 2025-11-13T18:00:02.999808
MEAN_MOTION    = 15.97464164
ECCENTRICITY   = .00022391
INCLINATION    = 42.9971
RA_OF_ASC_NODE = 157.0237
ARG_OF_PERICENTER = 268.1409
MEAN_ANOMALY   = 14.0812

EPHEMERIS_TYPE = 0
CLASSIFICATION_TYPE = U
NORAD_CAT_ID   = 66347
ELEMENT_SET_NO = 999
REV_AT_EPOCH   = 226
BSTAR          = -.39130261E-2
MEAN_MOTION_DOT = -.1795931E-1
MEAN_MOTION_DDOT = .93498258E-3

CCSDS_OMM_VERS = 2.0
CREATION_DATE  = 
ORIGINATOR     = 

OBJECT_NAME    = SHIYAN-32 A
OBJECT_ID      = 2025-255A
CENTER_NAME    = EARTH
REF_FRAME      = TEME
TIME_SYSTEM    = UTC
MEAN_ELEMENT_THEORY = SGP/SGP4

EPOCH          = 2025-11-13T23:27:10.901664
MEAN_MOTION    = 15.41367939
ECCENTRICITY   = .0013136
INCLINATION    = 52.9975
RA_OF_ASC_NODE = 314.6399
ARG_OF_PERICENTER = 309.8378
MEAN_ANOMALY   = 50.1469

EPHEMERIS_TYPE = 0
CLASSIFICATION_TYPE = U
NORAD_CAT_ID   = 66376
ELEMENT_SET_NO = 999
REV_AT_EPOCH   = 91
BSTAR          = .92132832E-3
MEAN_MOTION_DOT = .3895E-3
MEAN_MOTION_DDOT = 0

CCSDS_OMM_VERS = 2.0
CREATION_DATE  = 
ORIGINATOR     = 

OBJECT_NAME    = SHIYAN-32 B
OBJECT_ID      = 2025-255B
CENTER_NAME    = EARTH
REF_FRAME      = TEME
TIME_SYSTEM    = UTC
MEAN_ELEMENT_THEORY = SGP/SGP4

EPOCH          = 2025-11-13T23:25:40.684512
MEAN_MOTION    = 15.41836302
ECCENTRICITY   = .00147051
INCLINATION    = 52.9975
RA_OF_ASC_NODE = 314.6342
ARG_OF_PERICENTER = 308.2201
MEAN_ANOMALY   = 51.7478

EPHEMERIS_TYPE = 0
CLASSIFICATION_TYPE = U
NORAD_CAT_ID   = 66377
ELEMENT_SET_NO = 999
REV_AT_EPOCH   = 77
BSTAR          = .17196672E-2
MEAN_MOTION_DOT = .74615E-3
MEAN_MOTION_DDOT = 0

CCSDS_OMM_VERS = 2.0
CREATION_DATE  = 
ORIGINATOR     = 

OBJECT_NAME    = SHIYAN-32 C
OBJECT_ID      = 2025-255C
CENTER_NAME    = EARTH
REF_FRAME      = TEME
TIME_SYSTEM    = UTC
MEAN_ELEMENT_THEORY = SGP/SGP4

EPOCH          = 2025-11-13T23:24:41.679360
MEAN_MOTION    = 15.42144939
ECCENTRICITY   = .00143228
INCLINATION    = 52.9986
RA_OF_ASC_NODE = 314.6294
ARG_OF_PERICENTER = 312.8783
MEAN_ANOMALY   = 47.1018

EPHEMERIS_TYPE = 0
CLASSIFICATION_TYPE = U
NORAD_CAT_ID   = 66378
ELEMENT_SET_NO = 999
REV_AT_EPOCH   = 77
BSTAR          = .21704107E-2
MEAN_MOTION_DOT = .95501E-3
MEAN_MOTION_DDOT = 0

CCSDS_OMM_VERS = 2.0
CREATION_DATE  = 
ORIGINATOR     = 

OBJECT_NAME    = CZ-11H R/B
OBJECT_ID      = 2025-255D
CENTER_NAME    = EARTH
REF_FRAME      = TEME
TIME_SYSTEM    = UTC
MEAN_ELEMENT_THEORY = SGP/SGP4

EPOCH          = 2025-11-13T23:25:24.851712
MEAN_MOTION    = 15.41725571
ECCENTRICITY   = .00150578
INCLINATION    = 52.9980
RA_OF_ASC_NODE = 314.6324
ARG_OF_PERICENTER = 311.2365
MEAN_ANOMALY   = 48.7341

EPHEMERIS_TYPE = 0
CLASSIFICATION_TYPE = U
NORAD_CAT_ID   = 66379
ELEMENT_SET_NO = 999
REV_AT_EPOCH   = 79
BSTAR          = .84856251E-3
MEAN_MOTION_DOT = .36296E-3
MEAN_MOTION_DDOT = 0

CCSDS_OMM_VERS = 2.0
CREATION_DATE  = 
ORIGINATOR     = 

OBJECT_NAME    = CHUTIAN-2 A
OBJECT_ID      = 2025-256A
CENTER_NAME    = EARTH
REF_FRAME      = TEME
TIME_SYSTEM    = UTC
MEAN_ELEMENT_THEORY = SGP/SGP4

EPOCH          = 2025-11-13T22:50:31.815168
MEAN_MOTION    = 14.50839867
ECCENTRICITY   = .00127695
INCLINATION    = 98.2793
RA_OF_ASC_NODE = 23.2129
ARG_OF_PERICENTER = 271.7872
MEAN_ANOMALY   = 88.1860

EPHEMERIS_TYPE = 0
CLASSIFICATION_TYPE = U
NORAD_CAT_ID   = 66409
ELEMENT_SET_NO = 999
REV_AT_EPOCH   = 70
BSTAR          = .57914142E-4
MEAN_MOTION_DOT = .184E-5
MEAN_MOTION_DDOT = 0

CCSDS_OMM_VERS = 2.0
CREATION_DATE  = 
ORIGINATOR     = 

OBJECT_NAME    = CHUTIAN-2 B
OBJECT_ID      = 2025-256B
CENTER_NAME    = EARTH
REF_FRAME      = TEME
TIME_SYSTEM    = UTC
MEAN_ELEMENT_THEORY = SGP/SGP4

EPOCH          = 2025-11-13T22:49:55.718112
MEAN_MOTION    = 14.50969761
ECCENTRICITY   = .00126726
INCLINATION    = 98.2828
RA_OF_ASC_NODE = 23.2142
ARG_OF_PERICENTER = 274.5144
MEAN_ANOMALY   = 85.4603

EPHEMERIS_TYPE = 0
CLASSIFICATION_TYPE = U
NORAD_CAT_ID   = 66410
ELEMENT_SET_NO = 999
REV_AT_EPOCH   = 70
BSTAR          = .20578929E-3
MEAN_MOTION_DOT = .77E-5
MEAN_MOTION_DDOT = 0

CCSDS_OMM_VERS = 2.0
CREATION_DATE  = 
ORIGINATOR     = 

OBJECT_NAME    = ZK-1A R/B
OBJECT_ID      = 2025-256C
CENTER_NAME    = EARTH
REF_FRAME      = TEME
TIME_SYSTEM    = UTC
MEAN_ELEMENT_THEORY = SGP/SGP4

EPOCH          = 2025-11-13T22:12:15.727392
MEAN_MOTION    = 15.01024253
ECCENTRICITY   = .0233843
INCLINATION    = 98.3259
RA_OF_ASC_NODE = 23.6153
ARG_OF_PERICENTER = 340.8820
MEAN_ANOMALY   = 18.3732

EPHEMERIS_TYPE = 0
CLASSIFICATION_TYPE = U
NORAD_CAT_ID   = 66411
ELEMENT_SET_NO = 999
REV_AT_EPOCH   = 72
BSTAR          = .29595509E-3
MEAN_MOTION_DOT = .6734E-4
MEAN_MOTION_DDOT = 0

CCSDS_OMM_VERS = 2.0
CREATION_DATE  = 
ORIGINATOR     = 

OBJECT_NAME    = HULIANWANG DIGUI 13A
OBJECT_ID      = 2025-258A
CENTER_NAME    = EARTH
REF_FRAME      = TEME
TIME_SYSTEM    = UTC
MEAN_ELEMENT_THEORY = SGP/SGP4

EPOCH          = 2025-11-13T17:32:00.549888
MEAN_MOTION    = 14.25865551
ECCENTRICITY   = .00138811
INCLINATION    = 50.0047
RA_OF_ASC_NODE = 24.1929
ARG_OF_PERICENTER = 257.7856
MEAN_ANOMALY   = 102.1503

EPHEMERIS_TYPE = 0
CLASSIFICATION_TYPE = U
NORAD_CAT_ID   = 66412
ELEMENT_SET_NO = 999
REV_AT_EPOCH   = 52
BSTAR          = .97521874E-4
MEAN_MOTION_DOT = .74E-6
MEAN_MOTION_DDOT = 0

